MALLIGYONG-1            
1 58400U 23179A   24100.22090962  .00005252  00000+0  23424-3 0  9997
2 58400  97.4132 348.1033 0010829 136.8914 223.3172 15.21782170 21231
